[
    {
        "CCSDS_OMM_VERS": "3.0",
        "COMMENT": "GENERATED VIA SPACE-TRACK.ORG API",
        "CREATION_DATE": "2025-02-28T19:05:01",
        "ORIGINATOR": "18 SPCS",
        "OBJECT_NAME": "GALILEO 24 (2C0)",
        "OBJECT_ID": "2018-060D",
        "CENTER_NAME": "EARTH",
        "REF_FRAME": "TEME",
        "TIME_SYSTEM": "UTC",
        "MEAN_ELEMENT_THEORY": "SGP4",
        "EPOCH": "2025-02-28T04:17:30.188832",
        "MEAN_MOTION": "1.70475118",
        "ECCENTRICITY": "0.00055970",
        "INCLINATION": "57.2893",
        "RA_OF_ASC_NODE": "354.5769",
        "ARG_OF_PERICENTER": "300.7131",
        "MEAN_ANOMALY": "59.2347",
        "EPHEMERIS_TYPE": "0",
        "CLASSIFICATION_TYPE": "U",
        "NORAD_CAT_ID": "43567",
        "ELEMENT_SET_NO": "999",
        "REV_AT_EPOCH": "4109",
        "BSTAR": "0.00000000000000",
        "MEAN_MOTION_DOT": "-0.00000082",
        "MEAN_MOTION_DDOT": "0.0000000000000",
        "SEMIMAJOR_AXIS": "29600.191",
        "PERIOD": "844.698",
        "APOAPSIS": "23238.623",
        "PERIAPSIS": "23205.488",
        "OBJECT_TYPE": "PAYLOAD",
        "RCS_SIZE": "LARGE",
        "COUNTRY_CODE": "ESA",
        "LAUNCH_DATE": "2018-07-25",
        "SITE": "FRGUI",
        "DECAY_DATE": null,
        "FILE": "4655208",
        "GP_ID": "281921621",
        "TLE_LINE0": "0 GALILEO 24 (2C0)",
        "TLE_LINE1": "1 43567U 18060D   25059.17882163 -.00000082  00000-0  00000-0 0  9998",
        "TLE_LINE2": "2 43567  57.2893 354.5769 0005597 300.7131  59.2347  1.70475118 41099"
    }
]